{
    "links": {
        "self": "http://www.neowsapp.com/rest/v1/neo/3311962?api_key=iIulBulltgU6a56xZRHN4H3l9WmuAYTsLGpBGhQ2"
    },
    "id": "3311962",
    "neo_reference_id": "3311962",
    "name": "(2006 AK4)",
    "designation": "2006 AK4",
    "nasa_jpl_url": "http://ssd.jpl.nasa.gov/sbdb.cgi?sstr=3311962",
    "absolute_magnitude_h": 23.2,
    "estimated_diameter": {
        "kilometers": {
            "estimated_diameter_min": 0.0608912622,
            "estimated_diameter_max": 0.1361570015
        },
        "meters": {
            "estimated_diameter_min": 60.8912622106,
            "estimated_diameter_max": 136.1570015386
        },
        "miles": {
            "estimated_diameter_min": 0.0378360645,
            "estimated_diameter_max": 0.0846040122
        },
        "feet": {
            "estimated_diameter_min": 199.7744887109,
            "estimated_diameter_max": 446.7093369279
        }
    },
    "is_potentially_hazardous_asteroid": false,
    "close_approach_data": [
        {
            "close_approach_date": "2005-11-27",
            "close_approach_date_full": "2005-Nov-27 15:51",
            "epoch_date_close_approach": 1133106660000,
            "relative_velocity": {
                "kilometers_per_second": "8.8244519825",
                "kilometers_per_hour": "31768.0271369892",
                "miles_per_hour": "19739.4166396475"
            },
            "miss_distance": {
                "astronomical": "0.123052335",
                "lunar": "47.867358315",
                "kilometers": "18408367.21452645",
                "miles": "11438428.98010701"
            },
            "orbiting_body": "Earth"
        }
    ],
    "orbital_data": {
        "orbit_id": "9",
        "orbit_determination_date": "2017-04-06 09:09:27",
        "first_observation_date": "2006-01-07",
        "last_observation_date": "2006-01-25",
        "data_arc_in_days": 18,
        "observations_used": 23,
        "orbit_uncertainty": "7",
        "minimum_orbit_intersection": ".0991729",
        "jupiter_tisserand_invariant": "3.059",
        "epoch_osculation": "2459000.5",
        "eccentricity": ".6301039844219625",
        "semi_major_axis": "2.650882631220493",
        "inclination": "8.530139701172816",
        "ascending_node_longitude": "298.269615986056",
        "orbital_period": "1576.46443053789",
        "perihelion_distance": ".9805509230534848",
        "perihelion_argument": "115.157750942426",
        "aphelion_distance": "4.321214339387502",
        "perihelion_time": "2458427.800566546595",
        "mean_anomaly": "130.7811277244485",
        "mean_motion": ".2283591009263481",
        "equinox": "J2000",
        "orbit_class": {
            "orbit_class_type": "APO",
            "orbit_class_description": "Near-Earth asteroid orbits which cross the Earth’s orbit similar to that of 1862 Apollo",
            "orbit_class_range": "a (semi-major axis) > 1.0 AU; q (perihelion) < 1.017 AU"
        }
    },
    "is_sentry_object": false
}